GPS BIIR-2  (PRN 13)    
1 24876U 97035A   17210.44775639  .00000047  00000-0  00000-0 0  9998
2 24876  55.5432 225.4470 0033025 104.1444 256.2560  2.00561373146877
GPS BIIR-3  (PRN 11)    
1 25933U 99055A   17210.84854090 -.00000082  00000-0  00000-0 0  9990
2 25933  51.6609  75.7695 0167790  95.7524 122.7368  2.00557489130500
GPS BIIR-4  (PRN 20)    
1 26360U 00025A   17210.77130652  .00000003  00000-0  00000-0 0  9999
2 26360  53.1252 153.1152 0041753  93.6202 172.1848  2.00558210126190
GPS BIIR-5  (PRN 28)    
1 26407U 00040A   17210.55592084 -.00000089  00000-0  00000-0 0  9990
2 26407  56.6203 343.4982 0199647 270.1250 121.9726  2.00566490124871
GPS BIIR-6  (PRN 14)    
1 26605U 00071A   17210.85306830  .00000053  00000-0  00000-0 0  9999
2 26605  55.1151 223.1461 0095471 248.6297 266.4714  2.00563238122477
GPS BIIR-7  (PRN 18)    
1 26690U 01004A   17210.75898808  .00000008  00000-0  00000-0 0  9990
2 26690  53.0466 156.0521 0183753 257.6010 300.2257  2.00569264120878
GPS BIIR-8  (PRN 16)    
1 27663U 03005A   17210.86552316 -.00000090  00000-0  00000-0 0  9999
2 27663  56.6884 343.2273 0091903  25.2638 347.0766  2.00556938106249
GPS BIIR-9  (PRN 21)    
1 27704U 03010A   17210.30011969 -.00000068  00000-0  00000-0 0  9999
2 27704  53.8814  96.4728 0241690 265.3337  20.7771  2.00567571105023
GPS BIIR-10 (PRN 22)    
1 28129U 03058A   17209.64255186  .00000012  00000-0  00000-0 0  9997
2 28129  52.9358 156.0841 0076537 263.0085  96.0982  2.00551909 99703
GPS BIIR-11 (PRN 19)    
1 28190U 04009A   17210.63989094 -.00000075  00000-0  00000-0 0  9995
2 28190  56.0276  44.2368 0100199  58.5291 304.7677  2.00563949 97913
GPS BIIR-12 (PRN 23)    
1 28361U 04023A   17210.78049102  .00000054  00000-0  00000-0 0  9990
2 28361  54.1030 218.2181 0120286 221.3048 153.3426  2.00559213 95978
GPS BIIR-13 (PRN 02)    
1 28474U 04045A   17210.70494488 -.00000070  00000-0  00000-0 0  9991
2 28474  54.2597  95.9438 0171548 247.6112  72.4933  2.00577427 93358
GPS BIIRM-1 (PRN 17)    
1 28874U 05038A   17210.89299514 -.00000074  00000-0  00000-0 0  9995
2 28874  56.1823  41.4945 0119047 254.4178 313.5621  2.00565276 86767
GPS BIIRM-2 (PRN 31)    
1 29486U 06042A   17210.81282968 -.00000046  00000-0  00000-0 0  9997
2 29486  55.3700 280.5837 0084934 344.0358  85.3036  2.00555145 79366
GPS BIIRM-3 (PRN 12)    
1 29601U 06052A   17210.65810696 -.00000090  00000-0  00000-0 0  9993
2 29601  56.6616 342.1545 0064166  50.8877 309.6871  2.00555776 78334
GPS BIIRM-4 (PRN 15)    
1 32260U 07047A   17210.48132364  .00000051  00000-0  00000-0 0  9999
2 32260  53.2293 214.5410 0092540  32.3977 328.1817  2.00573884 71776
GPS BIIRM-5 (PRN 29)    
1 32384U 07062A   17209.76028376 -.00000078  00000-0  00000-0 0  9999
2 32384  56.2471  42.1240 0004987  20.8042 317.5359  2.00573483 70477
GPS BIIRM-6 (PRN 07)    
1 32711U 08012A   17210.38555161 -.00000046  00000-0  00000-0 0  9991
2 32711  55.0992 279.9585 0110247 213.2643 146.1046  2.00557314 68695
GPS BIIRM-8 (PRN 05)    
1 35752U 09043A   17210.70512240  .00000014  00000-0  00000-0 0  9995
2 35752  54.2602 157.7948 0049989  29.9579 223.7955  2.00548987 58283
GPS BIIF-1  (PRN 25)    
1 36585U 10022A   17210.01444160 -.00000090  00000-0  00000-0 0  9993
2 36585  55.9666 338.9684 0063253  46.1464 180.0536  2.00577536 52499
GPS BIIF-2  (PRN 01)    
1 37753U 11036A   17210.86662037 -.00000067  00000-0  00000-0 0  9999
2 37753  55.4656  99.0726 0067974  32.3169 171.9290  2.00562673 44208
GPS BIIF-3  (PRN 24)    
1 38833U 12053A   17210.57351468 -.00000042  00000-0  00000-0 0  9993
2 38833  54.1276 276.8261 0056356  25.1779 335.1631  2.00562357 34470
GPS BIIF-4  (PRN 27)    
1 39166U 13023A   17210.42632697 -.00000077  00000-0  00000-0 0  9999
2 39166  55.8884  38.5143 0048233  19.9752 340.2524  2.00564746 30807
GPS BIIF-5  (PRN 30)    
1 39533U 14008A   17210.43070442 -.00000051  00000-0  00000-0 0  9998
2 39533  54.2806 282.1346 0030307 186.3291 173.6971  2.00566318 24628
GPS BIIF-6  (PRN 06)    
1 39741U 14026A   17210.20915849 -.00000063  00000-0  00000-0 0  9996
2 39741  55.4516  98.6193 0008566 292.6751  67.2882  2.00558662 23456
GPS BIIF-7  (PRN 09)    
1 40105U 14045A   17210.79684664  .00000056  00000-0  00000-0 0  9996
2 40105  54.6267 218.1469 0004499 121.0767 238.9895  2.00573733 21033
GPS BIIF-8  (PRN 03)    
1 40294U 14068A   17210.67342315  .00000017  00000-0  00000-0 0  9998
2 40294  55.0082 158.8096 0008248 357.4911   2.4829  2.00561546 20130
GPS BIIF-9  (PRN 26)    
1 40534U 15013A   17210.31131843 -.00000093  00000-0  00000-0 0  9994
2 40534  54.9196 338.0100 0018091 356.5571   3.4397  2.00555964 17176
GPS BIIF-10  (PRN 08)   
1 40730U 15033A   17210.46734900 -.00000078  00000-0  00000-0 0  9996
2 40730  55.4224  38.1645 0026829 320.3080  39.5345  2.00564750 14933
GPS BIIF-11  (PRN 10)   
1 41019U 15062A   17210.52192014  .00000017  00000-0  00000-0 0  9992
2 41019  55.0169 158.6054 0027359 204.4222 155.4268  2.00563661 12759
GPS BIIF-12  (PRN 32)   
1 41328U 16007A   17210.61138838  .00000054  00000-0  00000-0 0  9990
2 41328  54.8831 218.3553 0015399 222.0973 137.8063  2.00554887 10815
